STARLINK-4045           
1 53152U 22083W   26068.54310215 -.00001149  00000+0 -54076-4 0  9996
2 53152  53.2166 164.7781 0001553 102.5872 257.5294 15.08842554201339
PRSC-S1                 
1 65055U 25164A   26068.60758212  .00007316  00000+0  46631-3 0  9991
2 65055  41.1290 129.3637 0004466 348.3012  11.7698 15.08919510 33403
