[{"OBJECT_NAME":"STARLINK-4045","OBJECT_ID":"2022-083W","EPOCH":"2026-03-09T13:02:04.025760","MEAN_MOTION":15.08842554,"ECCENTRICITY":0.00015539,"INCLINATION":53.2166,"RA_OF_ASC_NODE":164.7781,"ARG_OF_PERICENTER":102.5872,"MEAN_ANOMALY":257.5294,"EPHEMERIS_TYPE":0,"CLASSIFICATION_TYPE":"U","NORAD_CAT_ID":53152,"ELEMENT_SET_NO":999,"REV_AT_EPOCH":20133,"BSTAR":-5.4076055e-5,"MEAN_MOTION_DOT":-1.149e-5,"MEAN_MOTION_DDOT":0},{"OBJECT_NAME":"PRSC-S1","OBJECT_ID":"2025-164A","EPOCH":"2026-03-09T14:34:55.095168","MEAN_MOTION":15.0891951,"ECCENTRICITY":0.0004466,"INCLINATION":41.129,"RA_OF_ASC_NODE":129.3637,"ARG_OF_PERICENTER":348.3012,"MEAN_ANOMALY":11.7698,"EPHEMERIS_TYPE":0,"CLASSIFICATION_TYPE":"U","NORAD_CAT_ID":65055,"ELEMENT_SET_NO":999,"REV_AT_EPOCH":3340,"BSTAR":0.00046631,"MEAN_MOTION_DOT":7.316e-5,"MEAN_MOTION_DDOT":0}]
